ONEWEB-0243             
1 48774U 21045H   25210.81001292 -.00000104  00000+0 -30997-3 0  9992
2 48774  87.9089 323.5079 0002321  92.7563 267.3833 13.15547537203101
ONEWEB-0222             
1 48775U 21045J   25210.56521695 -.00000010  00000+0 -60889-4 0  9999
2 48775  87.9079 323.5125 0001963  93.2803 266.8552 13.15549323201988
ONEWEB-0244             
1 48776U 21045K   25210.59134900  .00000065  00000+0  13737-3 0  9999
2 48776  87.9082 323.4874 0002130  99.7364 260.4007 13.15547785202552
ONEWEB-0247             
1 48777U 21045L   25210.58818153  .00000067  00000+0  14282-3 0  9996
2 48777  87.9081 323.5609 0002798  86.3045 273.8405 13.15547076201997
ONEWEB-0245             
1 48778U 21045M   25210.58342407 -.00000067  00000+0 -21078-3 0  9994
2 48778  87.9078 323.5253 0001865  92.4231 267.7113 13.15547234201969
ONEWEB-0229             
1 48779U 21045N   25210.57866966 -.00000009  00000+0 -57902-4 0  9997
2 48779  87.9083 323.5253 0002107  98.6810 261.4559 13.15547409203126
ONEWEB-0228             
1 48780U 21045P   25210.61208920  .00000281  00000+0  71317-3 0  9999
2 48780  87.9081 323.4927 0002022  96.2789 263.8572 13.15548798201916
ONEWEB-0232             
1 48781U 21045Q   25210.58661108  .00000027  00000+0  37876-4 0  9998
2 48781  87.9075 323.4923 0001957  98.5106 261.6246 13.15548406202236
ONEWEB-0231             
1 48782U 21045R   25210.86864289 -.00000145  00000+0 -42039-3 0  9994
2 48782  87.9072 323.4899 0002160  93.8408 266.2969 13.15549655203103
ONEWEB-0234             
1 48783U 21045S   25210.60228575  .00000175  00000+0  43055-3 0  9999
2 48783  87.9076 323.5096 0001053  93.8953 266.2298 13.15554226202062
ONEWEB-0238             
1 48784U 21045T   25210.60256529  .00000172  00000+0  42295-3 0  9992
2 48784  87.9069 323.5071 0001537  99.6629 260.4675 13.15548403201962
ONEWEB-0240             
1 48785U 21045U   25210.54778677  .00000150  00000+0  36570-3 0  9994
2 48785  87.9081 323.4994 0001924  87.0034 273.1317 13.15549762201986
ONEWEB-0246             
1 48786U 21045V   25210.54222983  .00000211  00000+0  52674-3 0  9990
2 48786  87.9085 323.5120 0002089  98.9045 261.2322 13.15550222201852
ONEWEB-0210             
1 48787U 21045W   25210.59293105  .00000149  00000+0  36163-3 0  9995
2 48787  87.9082 323.5013 0002603  94.1505 265.9922 13.15548086201900
ONEWEB-0214             
1 48788U 21045X   25210.82982131  .00000070  00000+0  15221-3 0  9991
2 48788  87.9081 323.4432 0002420  99.3495 260.7909 13.15544962203028
ONEWEB-0221             
1 48789U 21045Y   25210.30456401  .00000221  00000+0  55198-3 0  9996
2 48789  87.9077 323.5768 0002077  92.8691 267.2677 13.15550135201921
ONEWEB-0213             
1 48790U 21045Z   25210.36951395  .00000061  00000+0  12817-3 0  9999
2 48790  87.9081 323.5708 0002165  94.3746 265.7631 13.15547161201993
