[{"OBJECT_NAME":"ONEWEB-0243","OBJECT_ID":"2021-045H","EPOCH":"2025-07-29T19:26:25.116288","MEAN_MOTION":13.15547537,"ECCENTRICITY":0.0002321,"INCLINATION":87.9089,"RA_OF_ASC_NODE":323.5079,"ARG_OF_PERICENTER":92.7563,"MEAN_ANOMALY":267.3833,"EPHEMERIS_TYPE":0,"CLASSIFICATION_TYPE":"U","NORAD_CAT_ID":48774,"ELEMENT_SET_NO":999,"REV_AT_EPOCH":20310,"BSTAR":-0.00030997,"MEAN_MOTION_DOT":-1.04e-6,"MEAN_MOTION_DDOT":0},{"OBJECT_NAME":"ONEWEB-0222","OBJECT_ID":"2021-045J","EPOCH":"2025-07-29T13:33:54.744480","MEAN_MOTION":13.15549323,"ECCENTRICITY":0.0001963,"INCLINATION":87.9079,"RA_OF_ASC_NODE":323.5125,"ARG_OF_PERICENTER":93.2803,"MEAN_ANOMALY":266.8552,"EPHEMERIS_TYPE":0,"CLASSIFICATION_TYPE":"U","NORAD_CAT_ID":48775,"ELEMENT_SET_NO":999,"REV_AT_EPOCH":20198,"BSTAR":-6.0889e-5,"MEAN_MOTION_DOT":-1.0e-7,"MEAN_MOTION_DDOT":0},{"OBJECT_NAME":"ONEWEB-0244","OBJECT_ID":"2021-045K","EPOCH":"2025-07-29T14:11:32.553600","MEAN_MOTION":13.15547785,"ECCENTRICITY":0.000213,"INCLINATION":87.9082,"RA_OF_ASC_NODE":323.4874,"ARG_OF_PERICENTER":99.7364,"MEAN_ANOMALY":260.4007,"EPHEMERIS_TYPE":0,"CLASSIFICATION_TYPE":"U","NORAD_CAT_ID":48776,"ELEMENT_SET_NO":999,"REV_AT_EPOCH":20255,"BSTAR":0.00013737,"MEAN_MOTION_DOT":6.5e-7,"MEAN_MOTION_DDOT":0},{"OBJECT_NAME":"ONEWEB-0247","OBJECT_ID":"2021-045L","EPOCH":"2025-07-29T14:06:58.884192","MEAN_MOTION":13.15547076,"ECCENTRICITY":0.0002798,"INCLINATION":87.9081,"RA_OF_ASC_NODE":323.5609,"ARG_OF_PERICENTER":86.3045,"MEAN_ANOMALY":273.8405,"EPHEMERIS_TYPE":0,"CLASSIFICATION_TYPE":"U","NORAD_CAT_ID":48777,"ELEMENT_SET_NO":999,"REV_AT_EPOCH":20199,"BSTAR":0.00014282,"MEAN_MOTION_DOT":6.7e-7,"MEAN_MOTION_DDOT":0},{"OBJECT_NAME":"ONEWEB-0245","OBJECT_ID":"2021-045M","EPOCH":"2025-07-29T14:00:07.839648","MEAN_MOTION":13.15547234,"ECCENTRICITY":0.0001865,"INCLINATION":87.9078,"RA_OF_ASC_NODE":323.5253,"ARG_OF_PERICENTER":92.4231,"MEAN_ANOMALY":267.7113,"EPHEMERIS_TYPE":0,"CLASSIFICATION_TYPE":"U","NORAD_CAT_ID":48778,"ELEMENT_SET_NO":999,"REV_AT_EPOCH":20196,"BSTAR":-0.00021078,"MEAN_MOTION_DOT":-6.7e-7,"MEAN_MOTION_DDOT":0},{"OBJECT_NAME":"ONEWEB-0229","OBJECT_ID":"2021-045N","EPOCH":"2025-07-29T13:53:17.058624","MEAN_MOTION":13.15547409,"ECCENTRICITY":0.0002107,"INCLINATION":87.9083,"RA_OF_ASC_NODE":323.5253,"ARG_OF_PERICENTER":98.681,"MEAN_ANOMALY":261.4559,"EPHEMERIS_TYPE":0,"CLASSIFICATION_TYPE":"U","NORAD_CAT_ID":48779,"ELEMENT_SET_NO":999,"REV_AT_EPOCH":20312,"BSTAR":-5.7902e-5,"MEAN_MOTION_DOT":-9.0e-8,"MEAN_MOTION_DDOT":0},{"OBJECT_NAME":"ONEWEB-0228","OBJECT_ID":"2021-045P","EPOCH":"2025-07-29T14:41:24.506880","MEAN_MOTION":13.15548798,"ECCENTRICITY":0.0002022,"INCLINATION":87.9081,"RA_OF_ASC_NODE":323.4927,"ARG_OF_PERICENTER":96.2789,"MEAN_ANOMALY":263.8572,"EPHEMERIS_TYPE":0,"CLASSIFICATION_TYPE":"U","NORAD_CAT_ID":48780,"ELEMENT_SET_NO":999,"REV_AT_EPOCH":20191,"BSTAR":0.00071317,"MEAN_MOTION_DOT":2.81e-6,"MEAN_MOTION_DDOT":0},{"OBJECT_NAME":"ONEWEB-0232","OBJECT_ID":"2021-045Q","EPOCH":"2025-07-29T14:04:43.197312","MEAN_MOTION":13.15548406,"ECCENTRICITY":0.0001957,"INCLINATION":87.9075,"RA_OF_ASC_NODE":323.4923,"ARG_OF_PERICENTER":98.5106,"MEAN_ANOMALY":261.6246,"EPHEMERIS_TYPE":0,"CLASSIFICATION_TYPE":"U","NORAD_CAT_ID":48781,"ELEMENT_SET_NO":999,"REV_AT_EPOCH":20223,"BSTAR":3.7876e-5,"MEAN_MOTION_DOT":2.7e-7,"MEAN_MOTION_DDOT":0},{"OBJECT_NAME":"ONEWEB-0231","OBJECT_ID":"2021-045R","EPOCH":"2025-07-29T20:50:50.745696","MEAN_MOTION":13.15549655,"ECCENTRICITY":0.000216,"INCLINATION":87.9072,"RA_OF_ASC_NODE":323.4899,"ARG_OF_PERICENTER":93.8408,"MEAN_ANOMALY":266.2969,"EPHEMERIS_TYPE":0,"CLASSIFICATION_TYPE":"U","NORAD_CAT_ID":48782,"ELEMENT_SET_NO":999,"REV_AT_EPOCH":20310,"BSTAR":-0.00042039,"MEAN_MOTION_DOT":-1.45e-6,"MEAN_MOTION_DDOT":0},{"OBJECT_NAME":"ONEWEB-0234","OBJECT_ID":"2021-045S","EPOCH":"2025-07-29T14:27:17.488800","MEAN_MOTION":13.15554226,"ECCENTRICITY":0.0001053,"INCLINATION":87.9076,"RA_OF_ASC_NODE":323.5096,"ARG_OF_PERICENTER":93.8953,"MEAN_ANOMALY":266.2298,"EPHEMERIS_TYPE":0,"CLASSIFICATION_TYPE":"U","NORAD_CAT_ID":48783,"ELEMENT_SET_NO":999,"REV_AT_EPOCH":20206,"BSTAR":0.00043055,"MEAN_MOTION_DOT":1.75e-6,"MEAN_MOTION_DDOT":0},{"OBJECT_NAME":"ONEWEB-0238","OBJECT_ID":"2021-045T","EPOCH":"2025-07-29T14:27:41.641056","MEAN_MOTION":13.15548403,"ECCENTRICITY":0.0001537,"INCLINATION":87.9069,"RA_OF_ASC_NODE":323.5071,"ARG_OF_PERICENTER":99.6629,"MEAN_ANOMALY":260.4675,"EPHEMERIS_TYPE":0,"CLASSIFICATION_TYPE":"U","NORAD_CAT_ID":48784,"ELEMENT_SET_NO":999,"REV_AT_EPOCH":20196,"BSTAR":0.00042295,"MEAN_MOTION_DOT":1.72e-6,"MEAN_MOTION_DDOT":0},{"OBJECT_NAME":"ONEWEB-0240","OBJECT_ID":"2021-045U","EPOCH":"2025-07-29T13:08:48.776928","MEAN_MOTION":13.15549762,"ECCENTRICITY":0.0001924,"INCLINATION":87.9081,"RA_OF_ASC_NODE":323.4994,"ARG_OF_PERICENTER":87.0034,"MEAN_ANOMALY":273.1317,"EPHEMERIS_TYPE":0,"CLASSIFICATION_TYPE":"U","NORAD_CAT_ID":48785,"ELEMENT_SET_NO":999,"REV_AT_EPOCH":20198,"BSTAR":0.0003657,"MEAN_MOTION_DOT":1.5e-6,"MEAN_MOTION_DDOT":0},{"OBJECT_NAME":"ONEWEB-0246","OBJECT_ID":"2021-045V","EPOCH":"2025-07-29T13:00:48.657312","MEAN_MOTION":13.15550222,"ECCENTRICITY":0.0002089,"INCLINATION":87.9085,"RA_OF_ASC_NODE":323.512,"ARG_OF_PERICENTER":98.9045,"MEAN_ANOMALY":261.2322,"EPHEMERIS_TYPE":0,"CLASSIFICATION_TYPE":"U","NORAD_CAT_ID":48786,"ELEMENT_SET_NO":999,"REV_AT_EPOCH":20185,"BSTAR":0.00052674,"MEAN_MOTION_DOT":2.11e-6,"MEAN_MOTION_DDOT":0},{"OBJECT_NAME":"ONEWEB-0210","OBJECT_ID":"2021-045W","EPOCH":"2025-07-29T14:13:49.242720","MEAN_MOTION":13.15548086,"ECCENTRICITY":0.0002603,"INCLINATION":87.9082,"RA_OF_ASC_NODE":323.5013,"ARG_OF_PERICENTER":94.1505,"MEAN_ANOMALY":265.9922,"EPHEMERIS_TYPE":0,"CLASSIFICATION_TYPE":"U","NORAD_CAT_ID":48787,"ELEMENT_SET_NO":999,"REV_AT_EPOCH":20190,"BSTAR":0.00036163,"MEAN_MOTION_DOT":1.49e-6,"MEAN_MOTION_DDOT":0},{"OBJECT_NAME":"ONEWEB-0214","OBJECT_ID":"2021-045X","EPOCH":"2025-07-29T19:54:56.561184","MEAN_MOTION":13.15544962,"ECCENTRICITY":0.000242,"INCLINATION":87.9081,"RA_OF_ASC_NODE":323.4432,"ARG_OF_PERICENTER":99.3495,"MEAN_ANOMALY":260.7909,"EPHEMERIS_TYPE":0,"CLASSIFICATION_TYPE":"U","NORAD_CAT_ID":48788,"ELEMENT_SET_NO":999,"REV_AT_EPOCH":20302,"BSTAR":0.00015221,"MEAN_MOTION_DOT":7.0e-7,"MEAN_MOTION_DDOT":0},{"OBJECT_NAME":"ONEWEB-0221","OBJECT_ID":"2021-045Y","EPOCH":"2025-07-29T07:18:34.330464","MEAN_MOTION":13.15550135,"ECCENTRICITY":0.0002077,"INCLINATION":87.9077,"RA_OF_ASC_NODE":323.5768,"ARG_OF_PERICENTER":92.8691,"MEAN_ANOMALY":267.2677,"EPHEMERIS_TYPE":0,"CLASSIFICATION_TYPE":"U","NORAD_CAT_ID":48789,"ELEMENT_SET_NO":999,"REV_AT_EPOCH":20192,"BSTAR":0.00055198,"MEAN_MOTION_DOT":2.21e-6,"MEAN_MOTION_DDOT":0},{"OBJECT_NAME":"ONEWEB-0213","OBJECT_ID":"2021-045Z","EPOCH":"2025-07-29T08:52:06.005280","MEAN_MOTION":13.15547161,"ECCENTRICITY":0.0002165,"INCLINATION":87.9081,"RA_OF_ASC_NODE":323.5708,"ARG_OF_PERICENTER":94.3746,"MEAN_ANOMALY":265.7631,"EPHEMERIS_TYPE":0,"CLASSIFICATION_TYPE":"U","NORAD_CAT_ID":48790,"ELEMENT_SET_NO":999,"REV_AT_EPOCH":20199,"BSTAR":0.00012817,"MEAN_MOTION_DOT":6.1e-7,"MEAN_MOTION_DDOT":0}]
